[{"OBJECT_NAME":"SAUDISAT 5A","OBJECT_ID":"2018-102A","EPOCH":"2026-03-09T23:40:00.596928","MEAN_MOTION":15.26941021,"ECCENTRICITY":0.00113651,"INCLINATION":97.3185,"RA_OF_ASC_NODE":132.4981,"ARG_OF_PERICENTER":121.7113,"MEAN_ANOMALY":238.5235,"EPHEMERIS_TYPE":0,"CLASSIFICATION_TYPE":"U","NORAD_CAT_ID":43831,"ELEMENT_SET_NO":999,"REV_AT_EPOCH":40053,"BSTAR":0.00030305233,"MEAN_MOTION_DOT":7.96e-5,"MEAN_MOTION_DDOT":0},{"OBJECT_NAME":"STARLINK-30585","OBJECT_ID":"2023-158N","EPOCH":"2026-03-09T22:00:01.999584","MEAN_MOTION":15.27528607,"ECCENTRICITY":0.00013177,"INCLINATION":43.0006,"RA_OF_ASC_NODE":25.8306,"ARG_OF_PERICENTER":243.4062,"MEAN_ANOMALY":124.873,"EPHEMERIS_TYPE":0,"CLASSIFICATION_TYPE":"U","NORAD_CAT_ID":58063,"ELEMENT_SET_NO":999,"REV_AT_EPOCH":552,"BSTAR":0.001444868,"MEAN_MOTION_DOT":0.00039649,"MEAN_MOTION_DDOT":0}]
